{
  "type": "FeatureCollection",
  "features": [
    {
      "type": "Feature",
      "properties": {
        "lote": 1,
        "nombre": "Lote 1",
        "hoja": "Vertices Lote 1",
        "siembra": 245,
        "mantenimiento": 200,
        "total": 445
      },
      "geometry": {
        "type": "Polygon",
        "coordinates": [
          [
            [
              -75.47556067190969,
              4.968986058508758
            ],
            [
              -75.47510225197799,
              4.968872947860562
            ],
            [
              -75.47466248642858,
              4.968644934673282
            ],
            [
              -75.4745689117831,
              4.968501986180335
            ],
            [
              -75.4752228262482,
              4.967944268855043
            ],
            [
              -75.47543230992827,
              4.967828650294367
            ],
            [
              -75.47554883791585,
              4.967733117432762
            ],
            [
              -75.47570907983986,
              4.967526176853609
            ],
            [
              -75.4757528961533,
              4.967554002636602
            ],
            [
              -75.47579627928488,
              4.967673456442472
            ],
            [
              -75.47580187172595,
              4.967893530274144
            ],
            [
              -75.47569369894414,
              4.96831020272171
            ],
            [
              -75.47564659892949,
              4.968473058347792
            ],
            [
              -75.47558538323086,
              4.9686885984076845
            ],
            [
              -75.47556067190969,
              4.968986058508758
            ]
          ]
        ]
      }
    },
    {
      "type": "Feature",
      "properties": {
        "lote": 2,
        "nombre": "Lote 2",
        "hoja": "Vertices Lote 2",
        "siembra": 650,
        "mantenimiento": 370,
        "total": 1020
      },
      "geometry": {
        "type": "Polygon",
        "coordinates": [
          [
            [
              -75.47653736741513,
              4.968107270019639
            ],
            [
              -75.47618286997655,
              4.968506577417401
            ],
            [
              -75.47604030626857,
              4.9686566337822
            ],
            [
              -75.47590353832975,
              4.968761812174907
            ],
            [
              -75.47562072956268,
              4.96884938558971
            ],
            [
              -75.47557393953416,
              4.9688263509953305
            ],
            [
              -75.47557929227892,
              4.9687619174579565
            ],
            [
              -75.47558538323086,
              4.9686885984076845
            ],
            [
              -75.47564659892949,
              4.968473058347792
            ],
            [
              -75.47569369894414,
              4.96831020272171
            ],
            [
              -75.47580187172595,
              4.967893530274144
            ],
            [
              -75.47579627928488,
              4.967673456442472
            ],
            [
              -75.4757528961533,
              4.967554002636602
            ],
            [
              -75.47581104382797,
              4.9674112011333635
            ],
            [
              -75.47589057441145,
              4.966989851619878
            ],
            [
              -75.47665111459304,
              4.966797607729932
            ],
            [
              -75.47682005526951,
              4.967323286457513
            ],
            [
              -75.47662408217198,
              4.967947618906261
            ],
            [
              -75.47653736741513,
              4.968107270019639
            ]
          ]
        ]
      }
    },
    {
      "type": "Feature",
      "properties": {
        "lote": 3,
        "nombre": "Lote 3",
        "hoja": "Vertices Lote 3",
        "siembra": 450,
        "mantenimiento": 280,
        "total": 730
      },
      "geometry": {
        "type": "Polygon",
        "coordinates": [
          [
            [
              -75.4745689117831,
              4.968501986180335
            ],
            [
              -75.47427020230768,
              4.96808444715491
            ],
            [
              -75.47479771877728,
              4.9675370144482445
            ],
            [
              -75.47491149329134,
              4.967342808181137
            ],
            [
              -75.47533306010054,
              4.967168977538779
            ],
            [
              -75.47563361603657,
              4.9671678491940785
            ],
            [
              -75.47585400281423,
              4.9671836063426795
            ],
            [
              -75.47581104382797,
              4.9674112011333635
            ],
            [
              -75.4757528961533,
              4.967554002636602
            ],
            [
              -75.47570907983986,
              4.967526176853609
            ],
            [
              -75.47554883791585,
              4.967733117432762
            ],
            [
              -75.47543230992827,
              4.967828650294367
            ],
            [
              -75.4752228262482,
              4.967944268855043
            ],
            [
              -75.474722460537,
              4.968371025986253
            ],
            [
              -75.4745689117831,
              4.968501986180335
            ]
          ]
        ]
      }
    },
    {
      "type": "Feature",
      "properties": {
        "lote": 4,
        "nombre": "Lote 4",
        "hoja": "Vertices Lote 4",
        "siembra": 990,
        "mantenimiento": 1365,
        "total": 2355
      },
      "geometry": {
        "type": "Polygon",
        "coordinates": [
          [
            [
              -75.47450476069062,
              4.967192721183691
            ],
            [
              -75.47438869270893,
              4.967187614520332
            ],
            [
              -75.47436024125868,
              4.967208157757157
            ],
            [
              -75.47433151180643,
              4.967094711491603
            ],
            [
              -75.47458179675428,
              4.967045925515171
            ],
            [
              -75.47470931835893,
              4.966860040850414
            ],
            [
              -75.47471190956637,
              4.966755366432572
            ],
            [
              -75.47489341421897,
              4.966653010924906
            ],
            [
              -75.47501532932694,
              4.9665628408154605
            ],
            [
              -75.4750388482301,
              4.966473039897223
            ],
            [
              -75.4749193569756,
              4.966413679897459
            ],
            [
              -75.47470155871959,
              4.966378612229498
            ],
            [
              -75.47472303310163,
              4.966540014367605
            ],
            [
              -75.47455337715597,
              4.9666213923155995
            ],
            [
              -75.47430291386648,
              4.966622332099202
            ],
            [
              -75.47427614462778,
              4.966590612869305
            ],
            [
              -75.47364042462637,
              4.96610590126883
            ],
            [
              -75.47376283910182,
              4.965971956603972
            ],
            [
              -75.47403210672857,
              4.965965455200479
            ],
            [
              -75.47398346270926,
              4.965714442223124
            ],
            [
              -75.47389030517813,
              4.96552041414365
            ],
            [
              -75.4738511416275,
              4.965412905747726
            ],
            [
              -75.47377346125685,
              4.965371331131261
            ],
            [
              -75.47357930513363,
              4.965279356151224
            ],
            [
              -75.47344488324691,
              4.965214070846979
            ],
            [
              -75.47335194891984,
              4.965079850250377
            ],
            [
              -75.47325933779541,
              4.965032350667072
            ],
            [
              -75.47313058967492,
              4.9648892929982935
            ],
            [
              -75.47334334384549,
              4.964371152005378
            ],
            [
              -75.4732819267898,
              4.964212964546345
            ],
            [
              -75.47336616566582,
              4.964094227978129
            ],
            [
              -75.47339812277652,
              4.964028318818519
            ],
            [
              -75.47340279989315,
              4.964003181729105
            ],
            [
              -75.47341339127689,
              4.963964864615074
            ],
            [
              -75.47340138879338,
              4.963944574750616
            ],
            [
              -75.473401139152,
              4.963877590172317
            ],
            [
              -75.47354151250518,
              4.963779775541374
            ],
            [
              -75.47469687174011,
              4.964955830310689
            ],
            [
              -75.47518064162233,
              4.965470759869046
            ],
            [
              -75.4752272308234,
              4.965810296743869
            ],
            [
              -75.47525917169912,
              4.966385764922047
            ],
            [
              -75.4754508577191,
              4.96661470963408
            ],
            [
              -75.47563196664458,
              4.966566183140191
            ],
            [
              -75.47589057441145,
              4.966989851619878
            ],
            [
              -75.47585400281423,
              4.9671836063426795
            ],
            [
              -75.4757360655722,
              4.967175174104244
            ],
            [
              -75.47563361603657,
              4.9671678491940785
            ],
            [
              -75.47533306010054,
              4.967168977538779
            ],
            [
              -75.47491666447291,
              4.967340675864148
            ],
            [
              -75.47469978711744,
              4.967254339215237
            ],
            [
              -75.47458219284984,
              4.967210442846506
            ],
            [
              -75.47450476069062,
              4.967192721183691
            ]
          ]
        ]
      }
    },
    {
      "type": "Feature",
      "properties": {
        "lote": 5,
        "nombre": "Lote 5",
        "hoja": "Vertices Lote 5",
        "siembra": 200,
        "mantenimiento": 260,
        "total": 460
      },
      "geometry": {
        "type": "Polygon",
        "coordinates": [
          [
            [
              -75.47420729970918,
              4.966986505022676
            ],
            [
              -75.47407324804622,
              4.966803685684281
            ],
            [
              -75.47389071701598,
              4.9666309259592625
            ],
            [
              -75.47376220253474,
              4.96655066658977
            ],
            [
              -75.47357860072151,
              4.96646880081245
            ],
            [
              -75.4734279352078,
              4.966338404846415
            ],
            [
              -75.47364042462637,
              4.96610590126883
            ],
            [
              -75.47427614462778,
              4.966590612869305
            ],
            [
              -75.47430291386648,
              4.966622332099202
            ],
            [
              -75.47455337715597,
              4.9666213923155995
            ],
            [
              -75.47472303310163,
              4.966540014367605
            ],
            [
              -75.47470155871959,
              4.966378612229498
            ],
            [
              -75.4749193569756,
              4.966413679897459
            ],
            [
              -75.4750388482301,
              4.966473039897223
            ],
            [
              -75.47501532932694,
              4.9665628408154605
            ],
            [
              -75.47489341421897,
              4.966653010924906
            ],
            [
              -75.47471190956637,
              4.966755366432572
            ],
            [
              -75.47470931835893,
              4.966860040850414
            ],
            [
              -75.47458179675428,
              4.967045925515171
            ],
            [
              -75.47433151180643,
              4.967094711491603
            ],
            [
              -75.4743617751523,
              4.967214214766992
            ],
            [
              -75.47426683040398,
              4.967248738526007
            ],
            [
              -75.47420213539714,
              4.967171230363835
            ],
            [
              -75.4742265485382,
              4.967001713226809
            ],
            [
              -75.47420729970918,
              4.966986505022676
            ]
          ]
        ]
      }
    },
    {
      "type": "Feature",
      "properties": {
        "lote": 6,
        "nombre": "Lote 6",
        "hoja": "Vertices Lote 6",
        "siembra": 415,
        "mantenimiento": 105,
        "total": 520
      },
      "geometry": {
        "type": "Polygon",
        "coordinates": [
          [
            [
              -75.47316235627333,
              4.964223015978586
            ],
            [
              -75.473401139152,
              4.963877590172317
            ],
            [
              -75.47340138879338,
              4.963944574750616
            ],
            [
              -75.47341339127689,
              4.963964864615074
            ],
            [
              -75.47340279989315,
              4.964003181729105
            ],
            [
              -75.47339812277652,
              4.964028318818519
            ],
            [
              -75.47339549624681,
              4.964033735807463
            ],
            [
              -75.4733882943824,
              4.964048589069553
            ],
            [
              -75.47336616566582,
              4.964094227978129
            ],
            [
              -75.4732819267898,
              4.964212964546345
            ],
            [
              -75.47328434919258,
              4.96421920368601
            ],
            [
              -75.47329145901121,
              4.964237515985016
            ],
            [
              -75.47334334384549,
              4.964371152005378
            ],
            [
              -75.47331790704078,
              4.964433100611549
            ],
            [
              -75.47329818664133,
              4.9644811277751035
            ],
            [
              -75.47313058967492,
              4.9648892929982935
            ],
            [
              -75.47322781856448,
              4.964997328238205
            ],
            [
              -75.47324204131881,
              4.965013131866391
            ],
            [
              -75.47325933779541,
              4.965032350667072
            ],
            [
              -75.47335194891984,
              4.965079850250377
            ],
            [
              -75.47344488324691,
              4.965214070846979
            ],
            [
              -75.47357930513363,
              4.965279356151224
            ],
            [
              -75.4737015862694,
              4.965337282810518
            ],
            [
              -75.47377380887256,
              4.965371517175596
            ],
            [
              -75.4738511416275,
              4.965412905747726
            ],
            [
              -75.47389030517813,
              4.96552041414365
            ],
            [
              -75.47398346270926,
              4.965714442223124
            ],
            [
              -75.47400107203602,
              4.96580531009293
            ],
            [
              -75.4740088125273,
              4.96584525244847
            ],
            [
              -75.47403210672857,
              4.965965455200479
            ],
            [
              -75.47376364304523,
              4.965971937132392
            ],
            [
              -75.47376283910182,
              4.965971956603972
            ],
            [
              -75.47364042462637,
              4.96610590126883
            ],
            [
              -75.4734834007789,
              4.965929883752688
            ],
            [
              -75.47333954153316,
              4.9658170648387125
            ],
            [
              -75.47303934393956,
              4.965527033123572
            ],
            [
              -75.47272325672292,
              4.9653635500754625
            ],
            [
              -75.47215083294168,
              4.965020036480928
            ],
            [
              -75.47294955957327,
              4.964729793536296
            ],
            [
              -75.47316235627333,
              4.964223015978586
            ]
          ]
        ]
      }
    },
    {
      "type": "Feature",
      "properties": {
        "lote": 7,
        "nombre": "Lote 7",
        "hoja": "Vertices Lote 7",
        "siembra": 950,
        "mantenimiento": 1370,
        "total": 2320
      },
      "geometry": {
        "type": "Polygon",
        "coordinates": [
          [
            [
              -75.47294675227585,
              4.967954538616702
            ],
            [
              -75.47334063678204,
              4.9664339257578565
            ],
            [
              -75.4734279352078,
              4.966338404846415
            ],
            [
              -75.47357860072151,
              4.96646880081245
            ],
            [
              -75.47376220253474,
              4.96655066658977
            ],
            [
              -75.47389071701598,
              4.9666309259592625
            ],
            [
              -75.47407324804622,
              4.966803685684281
            ],
            [
              -75.47420729970918,
              4.966986505022676
            ],
            [
              -75.4742265485382,
              4.967001713226809
            ],
            [
              -75.47420213539714,
              4.967171230363835
            ],
            [
              -75.47426683040398,
              4.967248738526007
            ],
            [
              -75.4743617751523,
              4.967214214766992
            ],
            [
              -75.47436024125868,
              4.967208157757157
            ],
            [
              -75.47438869270893,
              4.967187614520332
            ],
            [
              -75.47450476069062,
              4.967192721183691
            ],
            [
              -75.47458219284984,
              4.967210442846506
            ],
            [
              -75.47469978711744,
              4.967254339215237
            ],
            [
              -75.47491666447291,
              4.967340675864148
            ],
            [
              -75.47491149329134,
              4.967342808181137
            ],
            [
              -75.47479771877728,
              4.9675370144482445
            ],
            [
              -75.47427020230768,
              4.96808444715491
            ],
            [
              -75.47376996266115,
              4.968422438843886
            ],
            [
              -75.4734740780336,
              4.968770422302525
            ],
            [
              -75.47330147308628,
              4.968860782623923
            ],
            [
              -75.47311049810533,
              4.968822623716497
            ],
            [
              -75.47300900808926,
              4.968793100220892
            ],
            [
              -75.47282668828761,
              4.968677157563129
            ],
            [
              -75.47264398946879,
              4.968459541910805
            ],
            [
              -75.47256725600852,
              4.96813725764236
            ],
            [
              -75.4726928227402,
              4.968078668449856
            ],
            [
              -75.47294675227585,
              4.967954538616702
            ]
          ]
        ]
      }
    },
    {
      "type": "Feature",
      "properties": {
        "lote": 8,
        "nombre": "Lote 8",
        "hoja": "Vertices Lote 8",
        "siembra": 1500,
        "mantenimiento": 1550,
        "total": 3050
      },
      "geometry": {
        "type": "Polygon",
        "coordinates": [
          [
            [
              -75.47218222340143,
              4.9653347981000335
            ],
            [
              -75.47217547061813,
              4.966048323941033
            ],
            [
              -75.47224083836018,
              4.966306451785988
            ],
            [
              -75.47225597982687,
              4.966528882754864
            ],
            [
              -75.47229264302652,
              4.966765587049091
            ],
            [
              -75.47232174900861,
              4.966894664352998
            ],
            [
              -75.47237251056815,
              4.967073899603118
            ],
            [
              -75.47265323097433,
              4.967510645229679
            ],
            [
              -75.47294675227585,
              4.967954538616702
            ],
            [
              -75.4719570022591,
              4.968438363358994
            ],
            [
              -75.47078237306143,
              4.96898727528955
            ],
            [
              -75.47043775519076,
              4.968687131570074
            ],
            [
              -75.47084532601404,
              4.967539594697796
            ],
            [
              -75.46973411378859,
              4.966516966431619
            ],
            [
              -75.47044746988637,
              4.966492358592034
            ],
            [
              -75.47079882196635,
              4.966359463438132
            ],
            [
              -75.47101277007162,
              4.966161293515937
            ],
            [
              -75.47121427879011,
              4.96582561049191
            ],
            [
              -75.47127279900039,
              4.965526348304586
            ],
            [
              -75.47129165074351,
              4.964769529216335
            ],
            [
              -75.4713494379068,
              4.9647046963766135
            ],
            [
              -75.47218222340143,
              4.9653347981000335
            ]
          ]
        ]
      }
    }
  ]
}